#aV2013 10  3  0  0  0.00000000     288 DD+AD WGS84 FIT  NGA
## 1760 345600.00000000   300.00000000 56568 0.0000000000000
+   31     1  2  3  4  5  6  7  8  9 10 11 12 13 14 15 16 17
+         18 19 20 21 22 23 24 25 26 27 28 29 31 32  0  0  0
+          0  0  0  0  0  0  0  0  0  0  0  0  0  0  0  0  0
+          0  0  0  0  0  0  0  0  0  0  0  0  0  0  0  0  0
+          0  0  0  0  0  0  0  0  0  0  0  0  0  0  0  0  0
++         2  2  2  2  2  2  2  2  2  2  2  2  2  2  2  2  2
++         2  2  2  2  2  2  2  2  2  2  2  2  2  2  2  0  0
++         0  0  0  0  0  0  0  0  0  0  0  0  0  0  0  0  0
++         0  0  0  0  0  0  0  0  0  0  0  0  0  0  0  0  0
++         0  0  0  0  0  0  0  0  0  0  0  0  0  0  0  0  0
%c cc cc ccc ccc cccc cccc cccc cccc ccccc ccccc ccccc ccccc
%c cc cc ccc ccc cccc cccc cccc cccc ccccc ccccc ccccc ccccc
%f  0.0000000  0.000000000  0.00000000000  0.000000000000000
%f  0.0000000  0.000000000  0.00000000000  0.000000000000000
%i    0    0    0    0      0      0      0      0         0
%i    0    0    0    0      0      0      0      0         0
/*      NGA, ST. LOUIS,MO.                                  
/*   EPHEMERIS COMPUTED FROM  1 DAYS OF DATA
/*   EPOCHA SMOOTHER  
/* CCCCCCCCCCCCCCCCCCCCCCCCCCCCCCCCCCCCCCCCCCCCCCCCCCCCCCCCC
*  2013 10  3  3 45  0.00000000                                                 
P  1 -13555.509597  10431.583501  20261.713840     81.071659                    
V  1  -2649.905984 -25710.507381  11551.680731      0.038554                    
P  2  13623.034938  15515.973277 -16748.082770    454.130362                    
V  2    -94.935754  21662.278757  19217.594445      0.017628                    
P  3 -25247.687841  -8566.688554   -488.066069    267.551476                    
V  3   1055.717008  -3295.011339 -31056.338570      0.051063                    
P  4   7302.594284  24305.569656  -7654.301039      1.535190                    
V  4  -2804.416825   9643.102211  29346.841086      0.005067                    
P  5  18662.631374   3594.140011 -18645.960459   -399.333749                    
V  5 -18749.695137  14411.393888 -15861.630119      0.002663                    
P  6 -22496.183383 -13493.321514  -5253.021108     83.583907                    
V  6   7328.269447   -201.125924 -30144.413079      0.186053                    
P  7  -6375.978908  23197.457786 -10824.049793    265.278999                    
V  7  -2897.206296 -13817.362512 -28065.268234      0.041677                    
P  8  -1051.043560  26196.317618    497.710922      8.830330                    
V  8  -2166.310510    367.043148 -32970.206609      0.001956                    
P  9   1070.393272  26462.746682   -937.986788    272.770116                    
V  9  -2226.384227   -406.368165 -32313.961448      0.027708                    
P 10   3138.536576  16161.176815 -21079.835950    -96.671950                    
V 10 -22545.434012  13391.158602   7435.889746     -0.014222                    
P 11 -16564.922458   2486.939296  20166.628606   -425.212265                    
V 11  -9118.262572 -25397.540186  -4009.985414     -0.034433                    
P 12  23724.822318 -10141.781651   5783.430796    159.846755                    
V 12  -5199.196506   5717.649827  31299.517270      0.022056                    
P 13  -9565.445934  11492.171368 -22088.233386     73.940063                    
V 13 -23352.456445 -14838.761050   2267.781614     -0.038122                    
P 14  -9926.196949 -18744.881491  16293.883257    214.322652                    
V 14  18165.830338   8966.059816  21524.435206     -0.009441                    
P 15  23514.076119    632.584362  12557.308765   -140.061818                    
V 15  13396.698426   9042.867576 -25214.260719     -0.018896                    
P 16 -18304.142393  -3799.114761 -19032.692893   -245.395237                    
V 16  20150.937671 -12915.522905 -16502.215429      0.008698                    
P 17   8926.534263  18461.738142  17234.533849    -27.289746                    
V 17 -19416.349518  -8980.141429  19702.568811     -0.037098                    
P 18  12350.059080 -19812.348585  12764.306648    277.298563                    
V 18  14895.081455  -6082.621615 -25017.304601      0.020238                    
P 19 -23808.019548  -6115.029412  10477.311068   -408.584710                    
V 19 -10239.727665  -8792.328919 -27665.980095     -0.027675                    
P 20 -21887.964360  14855.305385   1683.424443    126.622933                    
V 20   -462.608223  -4551.746927  30960.822967      0.026768                    
P 21   3787.754929 -24805.269392  -7297.123507   -321.685199                    
V 21   4697.564260   9925.345161 -29492.246493     -0.019080                    
P 22    625.764036 -18135.083926  19551.589786    187.811181                    
V 22  21336.111173 -12304.804594 -12369.171021      0.018041                    
P 23 -18969.349761   4713.496997 -18070.716362     42.714552                    
V 23 -19827.710320 -11760.085614  17255.809310     -0.034475                    
P 24  14613.143676  -5926.217481  21360.339383    -14.823519                    
V 24   2517.639029  27039.919216   5829.573732     -0.007494                    
P 25  18412.214527 -17880.510386  -6692.944832    153.615550                    
V 25   8304.408171  -2764.728876  30590.315711      0.038669                    
P 26  22878.614835  13780.822932    502.628448    219.573626                    
V 26    116.682389   2484.129666 -31900.030503      0.187963                    
P 27 -23430.383260 -12465.915054  -1226.897821    -43.552775                    
V 27   2624.638940  -1841.460257 -31692.538086     -0.043146                    
P 28  -5100.130771  17927.627171  19442.543653    297.486562                    
V 28 -20734.209013  10984.484276 -16228.051207      0.031216                    
P 29  12509.018986  -9798.375537 -21236.472846    475.637560                    
V 29  23301.986949  13745.961462   7406.440268      0.031645                    
P 31  -6932.328693 -23773.660442  -9030.151974    327.126077                    
V 31   1842.173821 -11846.349880  29500.622499      0.007587                    
P 32 -23810.978046   4694.425107  10232.999564   -543.895827                    
V 32   9897.938435  -9082.747897  28012.630543      0.033021                    
EOF
